{"type": "FeatureCollection", "features": [{"type": "Feature", "properties": {"norad_id": 22490, "name": "SCD 1", "group": "resource", "lat": -15.888097591318159, "lon": -167.60455125469477, "alt_km": 737.7715158622359, "timestamp": "2025-12-20T14:38:01.614729+00:00", "meta": {"OBJECT_NAME": "SCD 1", "OBJECT_ID": "1993-009B", "EPOCH": "2025-12-20T02:06:40.199328", "MEAN_MOTION": 14.46003712, "ECCENTRICITY": 0.00420998, "INCLINATION": 24.9683, "RA_OF_ASC_NODE": 233.3258, "ARG_OF_PERICENTER": 42.7923, "MEAN_ANOMALY": 75.5892, "EPHEMERIS_TYPE": 0, "CLASSIFICATION_TYPE": "U", "NORAD_CAT_ID": 22490, "ELEMENT_SET_NO": 999, "REV_AT_EPOCH": 73516, "BSTAR": 6.2477864e-05, "MEAN_MOTION_DOT": 4.13e-06, "MEAN_MOTION_DDOT": 0}, "tle": {"line1": "1 22490U 93009B   25354.08796527  .00000413  00000+0  62478-4 0  9999", "line2": "2 22490  24.9683 233.3258 0042099  42.7923  75.5892 14.46003712735164"}}, "geometry": {"type": "Point", "coordinates": [-167.60455125469477, -15.888097591318159]}}, {"type": "Feature", "properties": {"norad_id": 25397, "name": "TECHSAT 1B (GO-32)", "group": "resource", "lat": -2.053413635911792, "lon": 157.67827778449512, "alt_km": 814.7343197319142, "timestamp": "2025-12-20T14:38:01.614769+00:00", "meta": {"OBJECT_NAME": "TECHSAT 1B (GO-32)", "OBJECT_ID": "1998-043D", "EPOCH": "2025-12-19T22:36:33.577056", "MEAN_MOTION": 14.24378966, "ECCENTRICITY": 0.0001832, "INCLINATION": 98.9926, "RA_OF_ASC_NODE": 337.3205, "ARG_OF_PERICENTER": 45.9373, "MEAN_ANOMALY": 314.1956, "EPHEMERIS_TYPE": 0, "CLASSIFICATION_TYPE": "U", "NORAD_CAT_ID": 25397, "ELEMENT_SET_NO": 999, "REV_AT_EPOCH": 42581, "BSTAR": 4.0104e-05, "MEAN_MOTION_DOT": 4.6e-07, "MEAN_MOTION_DDOT": 0}, "tle": {"line1": "1 25397U 98043D   25353.94205529  .00000046  00000+0  40104-4 0  9996", "line2": "2 25397  98.9926 337.3205 0001832  45.9373 314.1956 14.24378966425818"}}, "geometry": {"type": "Point", "coordinates": [157.67827778449512, -2.053413635911792]}}, {"type": "Feature", "properties": {"norad_id": 25504, "name": "SCD 2", "group": "resource", "lat": -10.10056209549227, "lon": 70.88991235102394, "alt_km": 734.0492188380313, "timestamp": "2025-12-20T14:38:01.614785+00:00", "meta": {"OBJECT_NAME": "SCD 2", "OBJECT_ID": "1998-060A", "EPOCH": "2025-12-20T00:34:20.177760", "MEAN_MOTION": 14.45427003, "ECCENTRICITY": 0.00169593, "INCLINATION": 24.9945, "RA_OF_ASC_NODE": 96.9807, "ARG_OF_PERICENTER": 30.6376, "MEAN_ANOMALY": 130.1203, "EPHEMERIS_TYPE": 0, "CLASSIFICATION_TYPE": "U", "NORAD_CAT_ID": 25504, "ELEMENT_SET_NO": 999, "REV_AT_EPOCH": 43437, "BSTAR": 4.6916456e-05, "MEAN_MOTION_DOT": 3.5e-06, "MEAN_MOTION_DDOT": 0}, "tle": {"line1": "1 25504U 98060A   25354.02384465  .00000350  00000+0  46916-4 0  9997", "line2": "2 25504  24.9945  96.9807 0016959  30.6376 130.1203 14.45427003434376"}}, "geometry": {"type": "Point", "coordinates": [70.88991235102394, -10.10056209549227]}}, {"type": "Feature", "properties": {"norad_id": 25757, "name": "DLR-TUBSAT", "group": "resource", "lat": 66.77858394056402, "lon": -179.83500662201635, "alt_km": 705.923573349768, "timestamp": "2025-12-20T14:38:01.614798+00:00", "meta": {"OBJECT_NAME": "DLR-TUBSAT", "OBJECT_ID": "1999-029B", "EPOCH": "2025-12-17T13:22:10.787520", "MEAN_MOTION": 14.52359578, "ECCENTRICITY": 0.00141996, "INCLINATION": 98.6566, "RA_OF_ASC_NODE": 336.2196, "ARG_OF_PERICENTER": 177.8976, "MEAN_ANOMALY": 182.2281, "EPHEMERIS_TYPE": 0, "CLASSIFICATION_TYPE": "U", "NORAD_CAT_ID": 25757, "ELEMENT_SET_NO": 999, "REV_AT_EPOCH": 40688, "BSTAR": 3.7650132e-05, "MEAN_MOTION_DOT": 1.05e-06, "MEAN_MOTION_DDOT": 0}, "tle": {"line1": "1 25757U 99029B   25351.55706930  .00000105  00000+0  37650-4 0  9996", "line2": "2 25757  98.6566 336.2196 0014199 177.8976 182.2281 14.52359578406886"}}, "geometry": {"type": "Point", "coordinates": [-179.83500662201635, 66.77858394056402]}}, {"type": "Feature", "properties": {"norad_id": 25994, "name": "TERRA", "group": "resource", "lat": 55.39667511111691, "lon": 34.28327133414467, "alt_km": 682.647300827226, "timestamp": "2025-12-20T14:38:01.614811+00:00", "meta": {"OBJECT_NAME": "TERRA", "OBJECT_ID": "1999-068A", "EPOCH": "2025-12-20T04:51:47.264832", "MEAN_MOTION": 14.60909675, "ECCENTRICITY": 0.00035419, "INCLINATION": 97.9738, "RA_OF_ASC_NODE": 45.6129, "ARG_OF_PERICENTER": 79.7531, "MEAN_ANOMALY": 356.7129, "EPHEMERIS_TYPE": 0, "CLASSIFICATION_TYPE": "U", "NORAD_CAT_ID": 25994, "ELEMENT_SET_NO": 999, "REV_AT_EPOCH": 38347, "BSTAR": 7.8289881e-05, "MEAN_MOTION_DOT": 3.39e-06, "MEAN_MOTION_DDOT": 0}, "tle": {"line1": "1 25994U 99068A   25354.20263038  .00000339  00000+0  78290-4 0  9998", "line2": "2 25994  97.9738  45.6129 0003541  79.7531 356.7129 14.60909675383471"}}, "geometry": {"type": "Point", "coordinates": [34.28327133414467, 55.39667511111691]}}, {"type": "Feature", "properties": {"norad_id": 27004, "name": "MAROC-TUBSAT", "group": "resource", "lat": 1.2854099680903095, "lon": 162.9702519886781, "alt_km": 1008.810098748545, "timestamp": "2025-12-20T14:38:01.614824+00:00", "meta": {"OBJECT_NAME": "MAROC-TUBSAT", "OBJECT_ID": "2001-056D", "EPOCH": "2025-12-20T02:54:22.118112", "MEAN_MOTION": 13.70253257, "ECCENTRICITY": 0.00191722, "INCLINATION": 99.7914, "RA_OF_ASC_NODE": 162.6953, "ARG_OF_PERICENTER": 240.5213, "MEAN_ANOMALY": 231.4875, "EPHEMERIS_TYPE": 0, "CLASSIFICATION_TYPE": "U", "NORAD_CAT_ID": 27004, "ELEMENT_SET_NO": 999, "REV_AT_EPOCH": 20166, "BSTAR": 1.8920121e-05, "MEAN_MOTION_DOT": -3e-07, "MEAN_MOTION_DDOT": 0}, "tle": {"line1": "1 27004U 01056D   25354.12108933 -.00000030  00000+0  18920-4 0  9998", "line2": "2 27004  99.7914 162.6953 0019172 240.5213 231.4875 13.70253257201663"}}, "geometry": {"type": "Point", "coordinates": [162.9702519886781, 1.2854099680903095]}}, {"type": "Feature", "properties": {"norad_id": 27424, "name": "AQUA", "group": "resource", "lat": -42.07679603033906, "lon": -36.71216470198445, "alt_km": 694.7291880227594, "timestamp": "2025-12-20T14:38:01.614836+00:00", "meta": {"OBJECT_NAME": "AQUA", "OBJECT_ID": "2002-022A", "EPOCH": "2025-12-19T19:17:33.406368", "MEAN_MOTION": 14.61824191, "ECCENTRICITY": 0.00013487, "INCLINATION": 98.4046, "RA_OF_ASC_NODE": 314.798, "ARG_OF_PERICENTER": 112.3467, "MEAN_ANOMALY": 286.6091, "EPHEMERIS_TYPE": 0, "CLASSIFICATION_TYPE": "U", "NORAD_CAT_ID": 27424, "ELEMENT_SET_NO": 999, "REV_AT_EPOCH": 25706, "BSTAR": 0.00015509968, "MEAN_MOTION_DOT": 7.25e-06, "MEAN_MOTION_DDOT": 0}, "tle": {"line1": "1 27424U 02022A   25353.80385887  .00000725  00000+0  15510-3 0  9998", "line2": "2 27424  98.4046 314.7980 0001348 112.3467 286.6091 14.61824191257063"}}, "geometry": {"type": "Point", "coordinates": [-36.71216470198445, -42.07679603033906]}}, {"type": "Feature", "properties": {"norad_id": 28051, "name": "IRS-P6 (RESOURCESAT-1)", "group": "resource", "lat": 6.158915861071435, "lon": -144.45417588131363, "alt_km": 729.2643202718227, "timestamp": "2025-12-20T14:38:01.614855+00:00", "meta": {"OBJECT_NAME": "IRS-P6 (RESOURCESAT-1)", "OBJECT_ID": "2003-046A", "EPOCH": "2025-12-20T07:26:18.180096", "MEAN_MOTION": 14.36078069, "ECCENTRICITY": 0.0064635, "INCLINATION": 98.2171, "RA_OF_ASC_NODE": 34.3665, "ARG_OF_PERICENTER": 158.0305, "MEAN_ANOMALY": 266.3455, "EPHEMERIS_TYPE": 0, "CLASSIFICATION_TYPE": "U", "NORAD_CAT_ID": 28051, "ELEMENT_SET_NO": 999, "REV_AT_EPOCH": 15485, "BSTAR": 6.637543e-05, "MEAN_MOTION_DOT": 1.57e-06, "MEAN_MOTION_DDOT": 0}, "tle": {"line1": "1 28051U 03046A   25354.30993264  .00000157  00000+0  66375-4 0  9997", "line2": "2 28051  98.2171  34.3665 0064635 158.0305 266.3455 14.36078069154857"}}, "geometry": {"type": "Point", "coordinates": [-144.45417588131363, 6.158915861071435]}}, {"type": "Feature", "properties": {"norad_id": 28220, "name": "SHIYAN-1 (SY-1)", "group": "resource", "lat": 44.89665763291371, "lon": -115.44076024573808, "alt_km": 480.36491957926955, "timestamp": "2025-12-20T14:38:01.614867+00:00", "meta": {"OBJECT_NAME": "SHIYAN-1 (SY-1)", "OBJECT_ID": "2004-012A", "EPOCH": "2025-12-20T03:02:51.485856", "MEAN_MOTION": 15.28323258, "ECCENTRICITY": 0.00052458, "INCLINATION": 97.893, "RA_OF_ASC_NODE": 56.1022, "ARG_OF_PERICENTER": 295.057, "MEAN_ANOMALY": 65.0124, "EPHEMERIS_TYPE": 0, "CLASSIFICATION_TYPE": "U", "NORAD_CAT_ID": 28220, "ELEMENT_SET_NO": 999, "REV_AT_EPOCH": 18369, "BSTAR": 0.00034013438, "MEAN_MOTION_DOT": 9.306e-05, "MEAN_MOTION_DDOT": 0}, "tle": {"line1": "1 28220U 04012A   25354.12698479  .00009306  00000+0  34013-3 0  9997", "line2": "2 28220  97.8930  56.1022 0005245 295.0570  65.0124 15.28323258183696"}}, "geometry": {"type": "Point", "coordinates": [-115.44076024573808, 44.89665763291371]}}, {"type": "Feature", "properties": {"norad_id": 28376, "name": "AURA", "group": "resource", "lat": 63.01487640721441, "lon": -71.82736481166106, "alt_km": 683.053202856031, "timestamp": "2025-12-20T14:38:01.614898+00:00", "meta": {"OBJECT_NAME": "AURA", "OBJECT_ID": "2004-026A", "EPOCH": "2025-12-20T04:28:42.572640", "MEAN_MOTION": 14.60962313, "ECCENTRICITY": 0.00013687, "INCLINATION": 98.3195, "RA_OF_ASC_NODE": 304.4481, "ARG_OF_PERICENTER": 92.9547, "MEAN_ANOMALY": 267.181, "EPHEMERIS_TYPE": 0, "CLASSIFICATION_TYPE": "U", "NORAD_CAT_ID": 28376, "ELEMENT_SET_NO": 999, "REV_AT_EPOCH": 14007, "BSTAR": 0.0001546051, "MEAN_MOTION_DOT": 7.1e-06, "MEAN_MOTION_DDOT": 0}, "tle": {"line1": "1 28376U 04026A   25354.18660385  .00000710  00000+0  15461-3 0  9991", "line2": "2 28376  98.3195 304.4481 0001368  92.9547 267.1810 14.60962313140073"}}, "geometry": {"type": "Point", "coordinates": [-71.82736481166106, 63.01487640721441]}}]}